[{"OBJECT_NAME":"HAWK-7C","OBJECT_ID":"2023-054Y","EPOCH":"2026-03-09T16:32:02.440032","MEAN_MOTION":15.26207266,"ECCENTRICITY":0.00036507,"INCLINATION":97.2829,"RA_OF_ASC_NODE":317.5849,"ARG_OF_PERICENTER":52.209,"MEAN_ANOMALY":307.9479,"EPHEMERIS_TYPE":0,"CLASSIFICATION_TYPE":"U","NORAD_CAT_ID":56200,"ELEMENT_SET_NO":999,"REV_AT_EPOCH":16184,"BSTAR":0.0003098019,"MEAN_MOTION_DOT":7.947e-5,"MEAN_MOTION_DDOT":0},{"OBJECT_NAME":"STARLINK-30450","OBJECT_ID":"2023-147A","EPOCH":"2026-03-09T22:00:01.999584","MEAN_MOTION":15.26753138,"ECCENTRICITY":0.00016139,"INCLINATION":42.9999,"RA_OF_ASC_NODE":323.5204,"ARG_OF_PERICENTER":272.0502,"MEAN_ANOMALY":227.1858,"EPHEMERIS_TYPE":0,"CLASSIFICATION_TYPE":"U","NORAD_CAT_ID":57913,"ELEMENT_SET_NO":999,"REV_AT_EPOCH":567,"BSTAR":-0.00036162797,"MEAN_MOTION_DOT":-9.951e-5,"MEAN_MOTION_DDOT":0}]
